[{"OBJECT_NAME":"GECAM-A","OBJECT_ID":"2020-094A","EPOCH":"2026-02-27T03:21:27.347040","MEAN_MOTION":15.0033434,"ECCENTRICITY":0.00107,"INCLINATION":28.9961,"RA_OF_ASC_NODE":20.3521,"ARG_OF_PERICENTER":243.6219,"MEAN_ANOMALY":116.328,"EPHEMERIS_TYPE":0,"CLASSIFICATION_TYPE":"U","NORAD_CAT_ID":47234,"ELEMENT_SET_NO":999,"REV_AT_EPOCH":28514,"BSTAR":0.00017329,"MEAN_MOTION_DOT":2.379e-5,"MEAN_MOTION_DDOT":0},{"OBJECT_NAME":"STARLINK-35361","OBJECT_ID":"2025-211R","EPOCH":"2026-03-09T16:24:14.874336","MEAN_MOTION":15.0564104,"ECCENTRICITY":0.00016434,"INCLINATION":97.6034,"RA_OF_ASC_NODE":114.1032,"ARG_OF_PERICENTER":109.8514,"MEAN_ANOMALY":250.289,"EPHEMERIS_TYPE":0,"CLASSIFICATION_TYPE":"U","NORAD_CAT_ID":65667,"ELEMENT_SET_NO":999,"REV_AT_EPOCH":2704,"BSTAR":0.00020859662,"MEAN_MOTION_DOT":2.95e-5,"MEAN_MOTION_DDOT":0}]
